OBJECT_NAME,OBJECT_ID,EPOCH,MEAN_MOTION,ECCENTRICITY,INCLINATION,RA_OF_ASC_NODE,ARG_OF_PERICENTER,MEAN_ANOMALY,EPHEMERIS_TYPE,CLASSIFICATION_TYPE,NORAD_CAT_ID,ELEMENT_SET_NO,REV_AT_EPOCH,BSTAR,MEAN_MOTION_DOT,MEAN_MOTION_DDOT
STARLINK-11322 [DTC],2024-184L,2026-06-24T03:26:44.179296,15.69711346,.00009897,53.1600,71.7378,98.1590,261.9540,0,U,61542,999,9819,.9717248E-5,.589E-5,0
STARLINK-11364 [DTC],2024-184M,2026-06-24T00:16:18.076512,15.69717941,.00009568,53.1592,72.3327,107.3127,252.7995,0,U,61543,999,9711,.14063105E-4,.1116E-4,0
STARLINK-11349 [DTC],2024-184N,2026-06-24T00:09:15.159744,15.69701866,.00008702,53.1588,72.2999,69.3047,290.8064,0,U,61544,999,9711,-.2075751E-5,-.839E-5,0
STARLINK-32406,2024-184P,2026-06-23T21:17:45.207456,15.34389937,.000098,53.1588,240.1426,92.9538,267.1577,0,U,61545,999,9477,.25894313E-4,.499E-5,0
STARLINK-32445,2024-184Q,2026-06-23T11:18:07.163136,15.34519283,.00013264,53.1585,241.8183,62.5824,297.5313,0,U,61546,999,9471,.25081968E-3,.8139E-4,0
STARLINK-32411,2024-184R,2026-06-23T21:35:56.121504,15.34389241,.00012855,53.1602,240.2236,89.1445,270.9705,0,U,61547,999,9477,.58041693E-4,.1585E-4,0
STARLINK-32424,2024-184S,2026-06-23T14:35:17.486592,15.34399608,.00010376,53.1608,241.2484,84.9409,275.1712,0,U,61548,999,9473,.48193942E-4,.1252E-4,0
STARLINK-32389,2024-184T,2026-06-23T14:38:32.626176,15.30197799,.0000959,53.1599,241.9724,87.3896,272.7214,0,U,61549,999,9472,-.29505375E-4,-.1233E-4,0
STARLINK-32476,2024-184U,2026-06-23T20:59:34.216512,15.34398496,.00010585,53.1580,240.0699,99.1677,260.9445,0,U,61550,999,9477,.68097603E-4,.1925E-4,0
STARLINK-32366,2024-184V,2026-06-23T11:09:31.455360,15.34387107,.00009424,53.1598,241.7825,77.4269,282.6839,0,U,61551,999,9471,.99283788E-4,.2978E-4,0
QIANFAN-19,2024-185A,2026-06-24T05:12:46.003104,14.14480842,.00088159,88.9835,55.7700,53.4139,306.7858,0,U,61552,999,9701,.157019E-3,.315E-5,0
QIANFAN-20,2024-185B,2026-06-24T05:12:12.369312,14.09025099,.0007924,88.9831,56.2859,87.4872,272.7219,0,U,61553,999,9673,.14311706E-3,.262E-5,0
QIANFAN-21,2024-185C,2026-06-24T05:34:54.765120,14.22860970,.00129785,88.9751,54.3165,91.3998,268.8680,0,U,61554,999,9748,.19262611E-3,.447E-5,0
QIANFAN-22,2024-185D,2026-06-24T05:20:13.400448,13.86396981,.00081722,88.9817,58.0476,113.7865,246.4164,0,U,61555,999,9574,.5412797E-4,.76E-6,0
QIANFAN-23,2024-185E,2026-06-24T04:49:15.780576,14.16505427,.00095997,88.9827,55.4905,59.9019,300.3119,0,U,61556,999,9713,.14338017E-3,.3E-5,0
QIANFAN-24,2024-185F,2026-06-24T05:05:09.348000,14.24076390,.00109055,88.9810,54.5802,38.2898,321.9067,0,U,61557,999,9755,.19515065E-3,.463E-5,0
QIANFAN-25,2024-185G,2026-06-24T05:30:16.071552,14.06082348,.00127574,88.9824,56.2911,86.8924,273.3718,0,U,61558,999,9669,.19007931E-3,.326E-5,0
QIANFAN-26,2024-185H,2026-06-24T05:00:42.398784,13.77915515,.0006916,88.9824,58.8676,129.8246,230.3530,0,U,61559,999,9531,.10416899E-3,.117E-5,0
QIANFAN-27,2024-185J,2026-06-24T05:22:23.762496,14.27541839,.0008533,88.9819,54.2620,30.0833,330.0850,0,U,61560,999,9776,.13963307E-3,.358E-5,0
QIANFAN-28,2024-185K,2026-06-24T05:46:14.193120,14.28392951,.00083712,88.9838,54.2726,28.4883,331.6767,0,U,61561,999,9779,.21126422E-3,.543E-5,0
QIANFAN-29,2024-185L,2026-06-24T06:13:43.075776,13.51074523,.00087961,88.9799,61.3071,200.5145,159.5654,0,U,61562,999,9392,.10461969E-3,.8E-6,0
QIANFAN-30,2024-185M,2026-06-24T05:35:22.793280,13.50053662,.00067134,88.9818,60.9092,181.9075,178.2051,0,U,61563,999,9417,.12560406E-3,.92E-6,0
QIANFAN-31,2024-185N,2026-06-24T05:50:40.445952,13.58040796,.00067903,88.9802,60.4029,167.4398,192.6928,0,U,61564,999,9442,.21191172E-4,.28E-6,0
QIANFAN-32,2024-185P,2026-06-24T05:50:06.902880,13.50787150,.0008029,88.9859,61.1005,218.5493,141.5085,0,U,61565,999,9416,.99211506E-4,.76E-6,0
QIANFAN-33,2024-185Q,2026-06-24T04:52:41.299392,13.96712367,.00097056,88.9815,57.2379,81.8890,278.3388,0,U,61566,999,9616,.15923888E-3,.234E-5,0
QIANFAN-34,2024-185R,2026-06-24T05:32:21.787872,14.02472715,.00086344,88.9791,56.5422,82.6397,277.5765,0,U,61567,999,9647,.18672019E-3,.301E-5,0
QIANFAN-35,2024-185S,2026-06-24T05:16:53.884704,14.28276616,.00074425,88.9819,54.1690,28.3382,331.8216,0,U,61568,999,9779,.19714224E-3,.506E-5,0
QIANFAN-36,2024-185T,2026-06-24T04:49:35.973120,13.55636330,.00054607,88.9793,60.8840,182.6463,177.4663,0,U,61569,999,9413,.12458229E-3,.99E-6,0
GAOFEN-12 05,2024-186A,2026-06-24T07:11:00.917088,14.80962208,.0000724,97.9093,183.3462,103.1587,256.9706,0,U,61571,999,9039,.45653292E-4,.301E-5,0
STARLINK-11356 [DTC],2024-187A,2026-06-24T04:01:57.767808,15.69698561,.00009087,53.1589,131.3795,73.2871,286.8247,0,U,61574,999,9750,.10937737E-4,.736E-5,0
