STARLINK-11322 [DTC]    
1 61542U 24184L   26175.14356689  .00000589  00000+0  97172-5 0  9992
2 61542  53.1600  71.7378 0000989  98.1590 261.9540 15.69711346 98193
STARLINK-11364 [DTC]    
1 61543U 24184M   26175.01132033  .00001116  00000+0  14063-4 0  9998
2 61543  53.1592  72.3327 0000956 107.3127 252.7995 15.69717941 97118
STARLINK-11349 [DTC]    
1 61544U 24184N   26175.00642546 -.00000839  00000+0 -20758-5 0  9995
2 61544  53.1588  72.2999 0000870  69.3047 290.8064 15.69701866 97110
STARLINK-32406          
1 61545U 24184P   26174.88732879  .00000499  00000+0  25894-4 0  9995
2 61545  53.1588 240.1426 0000980  92.9538 267.1577 15.34389937 94779
STARLINK-32445          
1 61546U 24184Q   26174.47091624  .00008139  00000+0  25082-3 0  9994
2 61546  53.1585 241.8183 0001326  62.5824 297.5313 15.34519283 94719
STARLINK-32411          
1 61547U 24184R   26174.89995511  .00001585  00000+0  58042-4 0  9990
2 61547  53.1602 240.2236 0001285  89.1445 270.9705 15.34389241 94775
STARLINK-32424          
1 61548U 24184S   26174.60784128  .00001252  00000+0  48194-4 0  9998
2 61548  53.1608 241.2484 0001037  84.9409 275.1712 15.34399608 94735
STARLINK-32389          
1 61549U 24184T   26174.61009984 -.00001233  00000+0 -29505-4 0  9996
2 61549  53.1599 241.9724 0000959  87.3896 272.7214 15.30197799 94720
STARLINK-32476          
1 61550U 24184U   26174.87470158  .00001925  00000+0  68098-4 0  9997
2 61550  53.1580 240.0699 0001058  99.1677 260.9445 15.34398496 94773
STARLINK-32366          
1 61551U 24184V   26174.46494740  .00002978  00000+0  99284-4 0  9996
2 61551  53.1598 241.7825 0000942  77.4269 282.6839 15.34387107 94718
QIANFAN-19              
1 61552U 24185A   26175.21719911  .00000315  00000+0  15702-3 0  9997
2 61552  88.9835  55.7700 0008815  53.4139 306.7858 14.14480842 97013
QIANFAN-20              
1 61553U 24185B   26175.21680983  .00000262  00000+0  14312-3 0  9991
2 61553  88.9831  56.2859 0007924  87.4872 272.7219 14.09025099 96736
QIANFAN-21              
1 61554U 24185C   26175.23257830  .00000447  00000+0  19263-3 0  9990
2 61554  88.9751  54.3165 0012978  91.3998 268.8680 14.22860970 97486
QIANFAN-22              
1 61555U 24185D   26175.22237732  .00000076  00000+0  54128-4 0  9997
2 61555  88.9817  58.0476 0008172 113.7865 246.4164 13.86396981 95740
QIANFAN-23              
1 61556U 24185E   26175.20087709  .00000300  00000+0  14338-3 0  9991
2 61556  88.9827  55.4905 0009599  59.9019 300.3119 14.16505427 97132
QIANFAN-24              
1 61557U 24185F   26175.21191375  .00000463  00000+0  19515-3 0  9990
2 61557  88.9810  54.5802 0010905  38.2898 321.9067 14.24076390 97557
QIANFAN-25              
1 61558U 24185G   26175.22935268  .00000326  00000+0  19008-3 0  9994
2 61558  88.9824  56.2911 0012757  86.8924 273.3718 14.06082348 96696
QIANFAN-26              
1 61559U 24185H   26175.20882406  .00000117  00000+0  10417-3 0  9991
2 61559  88.9824  58.8676 0006916 129.8246 230.3530 13.77915515 95319
QIANFAN-27              
1 61560U 24185J   26175.22388614  .00000358  00000+0  13963-3 0  9993
2 61560  88.9819  54.2620 0008533  30.0833 330.0850 14.27541839 97760
QIANFAN-28              
1 61561U 24185K   26175.24044205  .00000543  00000+0  21126-3 0  9997
2 61561  88.9838  54.2726 0008371  28.4883 331.6767 14.28392951 97792
QIANFAN-29              
1 61562U 24185L   26175.25952634  .00000080  00000+0  10462-3 0  9990
2 61562  88.9799  61.3071 0008796 200.5145 159.5654 13.51074523 93926
QIANFAN-30              
1 61563U 24185M   26175.23290270  .00000092  00000+0  12560-3 0  9994
2 61563  88.9818  60.9092 0006713 181.9075 178.2051 13.50053662 94175
QIANFAN-31              
1 61564U 24185N   26175.24352368  .00000028  00000+0  21191-4 0  9993
2 61564  88.9802  60.4029 0006790 167.4398 192.6928 13.58040796 94429
QIANFAN-32              
1 61565U 24185P   26175.24313545  .00000076  00000+0  99212-4 0  9990
2 61565  88.9859  61.1005 0008029 218.5493 141.5085 13.50787150 94167
QIANFAN-33              
1 61566U 24185Q   26175.20325578  .00000234  00000+0  15924-3 0  9999
2 61566  88.9815  57.2379 0009705  81.8890 278.3388 13.96712367 96169
QIANFAN-34              
1 61567U 24185R   26175.23080773  .00000301  00000+0  18672-3 0  9996
2 61567  88.9791  56.5422 0008634  82.6397 277.5765 14.02472715 96477
QIANFAN-35              
1 61568U 24185S   26175.22006811  .00000506  00000+0  19714-3 0  9992
2 61568  88.9819  54.1690 0007442  28.3382 331.8216 14.28276616 97798
QIANFAN-36              
1 61569U 24185T   26175.20111080  .00000099  00000+0  12458-3 0  9991
2 61569  88.9793  60.8840 0005460 182.6463 177.4663 13.55636330 94130
GAOFEN-12 05            
1 61571U 24186A   26175.29931617  .00000301  00000+0  45653-4 0  9990
2 61571  97.9093 183.3462 0000724 103.1587 256.9706 14.80962208 90390
STARLINK-11356 [DTC]    
1 61574U 24187A   26175.16802972  .00000736  00000+0  10938-4 0  9991
2 61574  53.1589 131.3795 0000908  73.2871 286.8247 15.69698561 97504
